NORAD_CAT_ID,OBJECT_NAME,OBJECT_TYPE,EPOCH,MEAN_MOTION,ECCENTRICITY,INCLINATION,RA_OF_ASC_NODE,ARG_OF_PERICENTER,MEAN_ANOMALY,BSTAR,MEAN_MOTION_DOT,MEAN_MOTION_DDOT,TLE_LINE0,TLE_LINE1,TLE_LINE2,SEMIMAJOR_AXIS,PERIOD,APOGEE,PERIGEE,DECAYED
51463.0,STARLINK-3419,PAYLOAD,2024-05-15 22:36:54,15.08851885,0.0001444,53.2186,14.31,87.6413,272.4744,0.00015681,2.209e-05,0.0,0 STARLINK-3419,1 51463U 22010H   24136.94229175  .00002209  00000-0  15681-3 0  9996,2 51463  53.2186  14.3100 0001444  87.6413 272.4744 15.08851885126465,6917.844,95.437,540.708,538.71,0.0
51463.0,STARLINK-3419,PAYLOAD,2024-05-16 22:27:40,15.08849049,0.0001138,53.2171,9.8496,74.1957,285.9161,3.4681e-05,2.64e-06,0.0,0 STARLINK-3419,1 51463U 22010H   24137.93588741  .00000264  00000-0  34681-4 0  9994,2 51463  53.2171   9.8496 0001138  74.1957 285.9161 15.08849049126618,6917.853,95.437,540.505,538.93,0.0
51463.0,STARLINK-3419,PAYLOAD,2024-05-17 07:59:58,15.0886076,0.0002149,53.2187,8.066,88.8451,271.2787,0.00024646,3.639e-05,0.0,0 STARLINK-3419,1 51463U 22010H   24138.33331937  .00003639  00000-0  24646-3 0  9990,2 51463  53.2187   8.0660 0002149  88.8451 271.2787 15.08860760127428,6917.817,95.436,541.169,538.195,0.0
51463.0,STARLINK-3419,PAYLOAD,2024-05-17 15:56:56,15.08811848,0.0001632,53.2168,6.5783,82.4498,277.6679,-0.00055044,-9.031e-05,0.0,0 STARLINK-3419,1 51463U 22010H   24138.66453879 -.00009031  00000-0 -55044-3 0  9996,2 51463  53.2168   6.5783 0001632  82.4498 277.6679 15.08811848127471,6917.966,95.439,540.96,538.702,0.0
51463.0,STARLINK-3419,PAYLOAD,2024-05-17 22:18:28,15.08821984,0.0001334,53.2169,5.3888,92.0262,268.0883,-0.00028346,-4.794e-05,0.0,0 STARLINK-3419,1 51463U 22010H   24138.92949834 -.00004794  00000-0 -28346-3 0  9992,2 51463  53.2169   5.3888 0001334  92.0262 268.0883 15.08821984126764,6917.935,95.439,540.723,538.878,0.0
51463.0,STARLINK-3419,PAYLOAD,2024-05-18 07:50:46,15.08843222,0.0001379,53.2169,3.6047,73.6164,286.498,0.00017849,2.554e-05,0.0,0 STARLINK-3419,1 51463U 22010H   24139.32693275  .00002554  00000-0  17849-3 0  9998,2 51463  53.2169   3.6047 0001379  73.6164 286.4980 15.08843222127578,6917.871,95.437,540.69,538.782,0.0
51463.0,STARLINK-3419,PAYLOAD,2024-05-18 20:33:52,15.08836333,0.0001316,53.2182,1.2269,66.2981,293.8149,7.9567e-05,9.79e-06,0.0,0 STARLINK-3419,1 51463U 22010H   24139.85685842  .00000979  00000-0  79567-4 0  9992,2 51463  53.2182   1.2269 0001316  66.2981 293.8149 15.08836333127652,6917.892,95.438,540.667,538.846,0.0
51463.0,STARLINK-3419,PAYLOAD,2024-05-18 22:09:15,15.08847842,9.2e-05,53.2169,0.9288,84.4187,275.691,0.00039959,6.079e-05,0.0,0 STARLINK-3419,1 51463U 22010H   24139.92309325  .00006079  00000-0  39959-3 0  9996,2 51463  53.2169   0.9288 0000920  84.4187 275.6910 15.08847842126913,6917.856,95.437,540.358,539.085,0.0
51463.0,STARLINK-3419,PAYLOAD,2024-05-18 23:44:38,15.08850243,0.0001571,53.2155,0.6362,119.1045,241.0105,0.00051661,7.946e-05,0.0,0 STARLINK-3419,1 51463U 22010H   24139.98933363  .00007946  00000-0  51661-3 0  9995,2 51463  53.2155   0.6362 0001571 119.1045 241.0105 15.08850243127676,6917.849,95.437,540.801,538.627,0.0
51463.0,STARLINK-3419,PAYLOAD,2024-05-19 20:24:39,15.08837997,0.0001989,53.2169,356.7652,155.8156,204.2929,9.9025e-05,1.288e-05,0.0,0 STARLINK-3419,1 51463U 22010H   24140.85045727  .00001288  00000-0  99025-4 0  9991,2 51463  53.2169 356.7652 0001989 155.8156 204.2929 15.08837997127802,6917.887,95.438,541.127,538.376,0.0
51463.0,STARLINK-3419,PAYLOAD,2024-05-20 13:53:54,15.08834424,7.78e-05,53.2175,353.493,75.094,285.0138,0.00012976,1.778e-05,0.0,0 STARLINK-3419,1 51463U 22010H   24141.57910614  .00001778  00000-0  12976-3 0  9990,2 51463  53.2175 353.4930 0000778  75.0940 285.0138 15.08834424127161,6917.897,95.438,540.301,539.224,0.0
51463.0,STARLINK-3419,PAYLOAD,2024-05-20 23:26:13,15.08850154,9.77e-05,53.2169,351.7092,78.2247,281.8855,0.00031264,4.693e-05,0.0,0 STARLINK-3419,1 51463U 22010H   24141.97654110  .00004693  00000-0  31264-3 0  9990,2 51463  53.2169 351.7092 0000977  78.2247 281.8855 15.08850154127977,6917.849,95.437,540.39,539.038,0.0
51463.0,STARLINK-3419,PAYLOAD,2024-05-21 20:06:14,15.08844867,9.69e-05,53.2169,347.8414,91.3258,268.7846,0.00024411,3.6e-05,0.0,0 STARLINK-3419,1 51463U 22010H   24142.83766209  .00003600  00000-0  24411-3 0  9992,2 51463  53.2169 347.8414 0000969  91.3258 268.7846 15.08844867128104,6917.866,95.437,540.401,539.06,0.0
51463.0,STARLINK-3419,PAYLOAD,2024-05-22 19:57:01,15.08841099,0.000105,53.2173,343.3816,78.9294,281.1817,9.2529e-05,1.185e-05,0.0,0 STARLINK-3419,1 51463U 22010H   24143.83126349  .00001185  00000-0  92529-4 0  9990,2 51463  53.2173 343.3816 0001050  78.9294 281.1817 15.08841099128256,6917.877,95.437,540.468,539.016,0.0
51463.0,STARLINK-3419,PAYLOAD,2024-05-23 18:12:25,15.08836455,0.0001017,53.2169,339.2235,88.6932,271.4176,3.3432e-05,2.44e-06,0.0,0 STARLINK-3419,1 51463U 22010H   24144.75862599  .00000244  00000-0  33432-4 0  9999,2 51463  53.2169 339.2235 0001017  88.6932 271.4176 15.08836455127642,6917.891,95.438,540.46,539.053,0.0
51463.0,STARLINK-3419,PAYLOAD,2024-05-24 13:17:02,15.08841754,9.88e-05,53.2176,335.6491,78.7587,281.3516,3.7404e-05,3.08e-06,0.0,0 STARLINK-3419,1 51463U 22010H   24145.55350277  .00000308  00000-0  37404-4 0  9997,2 51463  53.2176 335.6491 0000988  78.7587 281.3516 15.08841754127765,6917.875,95.437,540.424,539.057,0.0
51463.0,STARLINK-3419,PAYLOAD,2024-05-24 19:38:45,15.08675396,0.0002556,53.2178,334.4737,148.2247,211.89,-0.0007022,-0.00011397,0.0,0 STARLINK-3419,1 51463U 22010H   24145.81858227 -.00011397  00000-0 -70220-3 0  9998,2 51463  53.2178 334.4737 0002556 148.2247 211.8900 15.08675396128556,6918.384,95.448,542.017,538.48,0.0
51463.0,STARLINK-3419,PAYLOAD,2024-05-25 03:35:31,15.08803601,0.0001774,53.2175,332.9855,146.4168,213.6936,0.0011907,0.00018694,0.0,0 STARLINK-3419,1 51463U 22010H   24146.14966726  .00018694  00000-0  11907-2 0  9990,2 51463  53.2175 332.9855 0001774 146.4168 213.6936 15.08803601128607,6917.992,95.44,541.084,538.629,0.0
51463.0,STARLINK-3419,PAYLOAD,2024-05-25 11:32:27,15.08835364,0.0001104,53.2176,331.4981,85.7691,274.3427,-0.00018052,-3.159e-05,0.0,0 STARLINK-3419,1 51463U 22010H   24146.48087902 -.00003159  00000-0 -18052-3 0  9998,2 51463  53.2176 331.4981 0001104  85.7691 274.3427 15.08835364127907,6917.895,95.438,540.523,538.996,0.0
51463.0,STARLINK-3419,PAYLOAD,2024-05-25 19:29:25,15.08814231,0.0001485,53.2185,330.0142,138.1956,221.915,-0.00032109,-5.391e-05,0.0,0 STARLINK-3419,1 51463U 22010H   24146.81209563 -.00005391  00000-0 -32109-3 0  9993,2 51463  53.2185 330.0142 0001485 138.1956 221.9150 15.08814231128700,6917.959,95.439,540.851,538.797,0.0
51463.0,STARLINK-3419,PAYLOAD,2024-05-25 22:40:13,15.08779666,7.86e-05,53.2182,329.4189,108.0932,252.0146,-0.00062626,-0.00010224,0.0,0 STARLINK-3419,1 51463U 22010H   24146.94460223 -.00010224  00000-0 -62626-3 0  9997,2 51463  53.2182 329.4189 0000786 108.0932 252.0146 15.08779666128727,6918.065,95.441,540.474,539.386,0.0
51463.0,STARLINK-3419,PAYLOAD,2024-05-26 11:23:14,15.08831394,7.93e-05,53.2177,327.0286,61.3426,298.7646,9.5542e-05,1.233e-05,0.0,0 STARLINK-3419,1 51463U 22010H   24147.47447649  .00001233  00000-0  95542-4 0  9995,2 51463  53.2177 327.0286 0000793  61.3426 298.7646 15.08831394128808,6917.907,95.438,540.32,539.223,0.0
51463.0,STARLINK-3419,PAYLOAD,2024-05-26 20:55:33,15.08839746,8.5e-05,53.2186,325.2463,86.692,273.417,0.00015508,2.181e-05,0.0,0 STARLINK-3419,1 51463U 22010H   24147.87191039  .00002181  00000-0  15508-3 0  9994,2 51463  53.2186 325.2463 0000850  86.6920 273.4170 15.08839746128865,6917.881,95.438,540.334,539.158,0.0
51463.0,STARLINK-3419,PAYLOAD,2024-05-27 04:52:28,15.08841372,0.000103,53.2187,323.7594,125.7647,234.3441,0.00015489,2.178e-05,0.0,0 STARLINK-3419,1 51463U 22010H   24148.20310874  .00002178  00000-0  15489-3 0  9996,2 51463  53.2187 323.7594 0001030 125.7647 234.3441 15.08841372128164,6917.876,95.437,540.454,539.029,0.0
51463.0,STARLINK-3419,PAYLOAD,2024-05-27 19:10:58,15.08821676,9.32e-05,53.217,321.0822,139.8592,220.2469,2.4308e-05,9.9e-07,0.0,0 STARLINK-3419,1 51463U 22010H   24148.79928952  .00000099  00000-0  24308-4 0  9993,2 51463  53.2170 321.0822 0000932 139.8592 220.2469 15.08821676129009,6917.936,95.439,540.446,539.157,0.0
51463.0,STARLINK-3419,PAYLOAD,2024-05-28 11:04:50,15.08828874,9.62e-05,53.2174,318.1081,133.5039,226.6033,1.6959e-05,-1.8e-07,0.0,0 STARLINK-3419,1 51463U 22010H   24149.46169111 -.00000018  00000-0  16959-4 0  9997,2 51463  53.2174 318.1081 0000962 133.5039 226.6033 15.08828874128358,6917.914,95.438,540.445,539.114,0.0
51463.0,STARLINK-3419,PAYLOAD,2024-05-28 17:26:21,15.08852399,9.31e-05,53.2179,316.919,115.359,244.7498,0.00015461,2.175e-05,0.0,0 STARLINK-3419,1 51463U 22010H   24149.72663391  .00002175  00000-0  15461-3 0  9996,2 51463  53.2179 316.9190 0000931 115.3590 244.7498 15.08852399129149,6917.842,95.437,540.352,539.063,0.0
51463.0,STARLINK-3419,PAYLOAD,2024-05-29 10:55:35,15.0884384,0.0001093,53.2176,313.6532,72.7802,287.331,0.00042161,6.429e-05,0.0,0 STARLINK-3419,1 51463U 22010H   24150.45527167  .00006429  00000-0  42161-3 0  9991,2 51463  53.2176 313.6532 0001093  72.7802 287.3310 15.08843840128508,6917.869,95.437,540.49,538.978,0.0
51463.0,STARLINK-3419,PAYLOAD,2024-05-29 17:17:08,15.0884635,0.0001011,53.2181,312.46,106.7922,253.3181,0.00039529,6.01e-05,0.0,0 STARLINK-3419,1 51463U 22010H   24150.72023169  .00006010  00000-0  39529-3 0  9994,2 51463  53.2181 312.4600 0001011 106.7922 253.3181 15.08846350129293,6917.861,95.437,540.425,539.027,0.0
51463.0,STARLINK-3419,PAYLOAD,2024-05-30 13:57:08,15.08859994,0.0001165,53.2187,308.5957,85.2156,274.8969,6.6515e-05,7.71e-06,0.0,0 STARLINK-3419,1 51463U 22010H   24151.58134831  .00000771  00000-0  66515-4 0  9992,2 51463  53.2187 308.5957 0001165  85.2156 274.8969 15.08859994128671,6917.819,95.436,540.49,538.878,0.0
